ONEWEB-0199             
1 48234U 21031AA  25115.45092040  .00000068  00000+0  14869-3 0  9990
2 48234  87.9086  12.7790 0001864  75.8598 284.2739 13.14501399193383
ONEWEB-0203             
1 48235U 21031AB  25115.97425030 -.00000186  00000+0 -53713-3 0  9991
2 48235  87.9088  12.6776 0001583  73.6766 286.4538 13.14497936193461
ONEWEB-0197             
1 48236U 21031AC  25115.94965772  .00000028  00000+0  41590-4 0  9995
2 48236  87.9080  12.6926 0002099  81.8594 278.2773 13.14502709193379
ONEWEB-0194             
1 48237U 21031AD  25115.47154404  .00000254  00000+0  65036-3 0  9997
2 48237  87.9089  12.7844 0001797  72.0333 288.0992 13.14502309193486
ONEWEB-0193             
1 48238U 21031AE  25115.94411092  .00000118  00000+0  28322-3 0  9995
2 48238  87.9090  12.6984 0001639  78.5971 281.5342 13.14501903193494
ONEWEB-0191             
1 48239U 21031AF  25115.95520972 -.00000041  00000+0 -14503-3 0  9998
2 48239  87.9086  12.6705 0001603  72.9818 287.1487 13.14502887193359
ONEWEB-0195             
1 48240U 21031AG  25115.47552659  .00000484  00000+0  12697-2 0  9994
2 48240  87.9085  12.7635 0001441  89.6466 270.4828 13.14501422193276
ONEWEB-0201             
1 48241U 21031AH  25115.69209534  .00000199  00000+0  50155-3 0  9995
2 48241  87.9093  12.7643 0001857  87.4219 272.7123 13.14500880193537
